41917,IRIDIUM 106,2017,100.4,860.0,+,86.4,Active,1,LEO,USA,USA,Commercial/Government,Communications,Falcon,1 41917U 17003A   24213.48025766  .00000234  00000+0  76408-4 0  9990,2 41917  86.3980  15.0678 0002225  80.5585 279.5862 14.34218562394929,14.34218562,0.0002225,LEO
41918,IRIDIUM 103,2017,100.4,860.0,+,86.4,Active,1,LEO,USA,USA,Commercial/Government,Communications,Falcon,1 41918U 17003B   24213.53734167  .00000064  00000+0  15873-4 0  9999,2 41918  86.3981  14.9459 0002503  93.6879 266.4603 14.34217479394953,14.34217479,0.0002503,LEO
41919,IRIDIUM 109,2017,100.4,860.0,+,86.4,Active,1,LEO,USA,USA,Commercial/Government,Communications,Falcon,1 41919U 17003C   24212.42738286  .00000556  00000+0  19156-3 0  9996,2 41919  86.3980  15.4578 0002186 100.7278 259.4164 14.34221332394767,14.34221332,0.0002186,LEO
41920,IRIDIUM 102,2017,100.4,860.0,+,86.4,Active,1,LEO,USA,USA,Commercial/Government,Communications,Falcon,1 41920U 17003D   24213.51197231  .00000502  00000+0  17211-3 0  9999,2 41920  86.3980  14.9427 0001988  94.8889 265.2534 14.34216736395002,14.34216736,0.0001988,LEO
41921,IRIDIUM 105,2017,100.4,860.0,+,86.4,Active,1,LEO,USA,USA,Commercial/Government,Communications,Falcon,1 41921U 17003E   24212.71525463  .00000348  00000+0  11731-3 0  9992,2 41921  86.4007 343.7234 0002357  93.5940 266.5525 14.34218099396748,14.34218099,0.0002357,LEO
41922,IRIDIUM 104,2017,100.4,860.0,+,86.4,Active,1,LEO,USA,USA,Commercial/Government,Communications,Falcon,1 41922U 17003F   24213.52465393  .00000276  00000+0  91566-4 0  9993,2 41922  86.3982  14.9693 0002296 100.9595 259.1859 14.34216514394990,14.34216514,0.0002296,LEO
41923,IRIDIUM 114,2017,100.4,860.0,+,86.4,Active,1,LEO,USA,USA,Commercial/Government,Communications,Falcon,1 41923U 17003G   24213.53098891  .00000528  00000+0  18143-3 0  9999,2 41923  86.3980  14.9526 0002173  84.0310 276.1134 14.34222783394973,14.34222783,0.0002173,LEO
41924,IRIDIUM 108,2017,100.4,860.0,+,86.4,Active,1,LEO,USA,USA,Commercial/Government,Communications,Falcon,1 41924U 17003H   24213.62905617  .00000054  00000+0  12235-4 0  9994,2 41924  86.4001 343.2636 0002090  89.4539 270.6896 14.34217706396840,14.34217706,0.000209,LEO
